0 SL-12 R/B(2)
1 17874U 84016F   13282.68463303 -.00000267  00000-0  10000-3 0  8141
2 17874 014.6547 355.1383 0041840 102.2710 258.2031 01.00315600 76396
0 SL-12 R/B(2)
1 17874U 84016F   13286.67190883 -.00000280  00000-0  10000-3 0  8150
2 17874 014.6549 355.0985 0041675 102.5586 257.9004 01.00314292 76432
0 SL-12 R/B(2)
1 17874U 84016F   13289.66239690 -.00000285  00000-0  10000-3 0  8168
2 17874 014.6551 355.0693 0041440 102.6978 257.7511 01.00313370 76467
0 SL-12 R/B(2)
1 17874U 84016F   13290.65923903 -.00000285  00000-0  10000-3 0  8177
2 17874 014.6552 355.0589 0041289 102.9572 257.4869 01.00313013 76474
0 SL-12 R/B(2)
1 17874U 84016F   13292.65295150 -.00000285  00000-0  10000-3 0  8186
2 17874 014.6553 355.0382 0041360 103.1573 257.2889 01.00312349 76493
0 SL-12 R/B(2)
1 17874U 84016F   13295.64352908 -.00000282  00000-0  10000-3 0  8191
2 17874 014.6555 355.0081 0041290 103.2468 257.2028 01.00311413 76527
